[
    {
        "Altitude(m)": 571820.9287522457,
        "Argument of Periapsis(deg)": 0.033114955553567506,
        "Eccentricity": 0.0,
        "Inclination(deg)": 53.0,
        "Latitude(deg)": -53.089258055611666,
        "Longitude(deg)": 89.83698477627013,
        "Mean Anomaly(deg)": -87.72373566211206,
        "RAAN(deg)": 279.95071684264,
        "Satellite Name": "Starlink Shell 1 1245",
        "Satellite Number": 1245,
        "Semi-Major Axis(m)": 6931778.249405717,
        "Time(s)": 950
    },
    {
        "Altitude(m)": 571806.3115830405,
        "Argument of Periapsis(deg)": 0.03346353403307874,
        "Eccentricity": 0.0,
        "Inclination(deg)": 53.0,
        "Latitude(deg)": -53.051473820945525,
        "Longitude(deg)": 90.83061188146992,
        "Mean Anomaly(deg)": -87.09690445855531,
        "RAAN(deg)": 279.9501980725626,
        "Satellite Name": "Starlink Shell 1 1245",
        "Satellite Number": 1245,
        "Semi-Major Axis(m)": 6931778.249405717,
        "Time(s)": 960
    },
    {
        "Altitude(m)": 571788.2285535657,
        "Argument of Periapsis(deg)": 0.03381211251258998,
        "Eccentricity": 0.0,
        "Inclination(deg)": 53.0,
        "Latitude(deg)": -53.00470857954561,
        "Longitude(deg)": 91.82221905382283,
        "Mean Anomaly(deg)": -86.47007325499865,
        "RAAN(deg)": 279.94967930248515,
        "Satellite Name": "Starlink Shell 1 1245",
        "Satellite Number": 1245,
        "Semi-Major Axis(m)": 6931778.249405717,
        "Time(s)": 970
    },
    {
        "Altitude(m)": 571766.6868602672,
        "Argument of Periapsis(deg)": 0.034160690992101214,
        "Eccentricity": 0.0,
        "Inclination(deg)": 53.0,
        "Latitude(deg)": -52.94899658730661,
        "Longitude(deg)": 92.8113872638718,
        "Mean Anomaly(deg)": -85.84324205144199,
        "RAAN(deg)": 279.94916053240763,
        "Satellite Name": "Starlink Shell 1 1245",
        "Satellite Number": 1245,
        "Semi-Major Axis(m)": 6931778.249405717,
        "Time(s)": 980
    },
    {
        "Altitude(m)": 571741.6950796046,
        "Argument of Periapsis(deg)": 0.034509269471612446,
        "Eccentricity": 0.0,
        "Inclination(deg)": 53.0,
        "Latitude(deg)": -52.88437842995754,
        "Longitude(deg)": 93.79770511596726,
        "Mean Anomaly(deg)": -85.21641084788517,
        "RAAN(deg)": 279.94864176233017,
        "Satellite Name": "Starlink Shell 1 1245",
        "Satellite Number": 1245,
        "Semi-Major Axis(m)": 6931778.249405717,
        "Time(s)": 990
    }
]